{
  "type": "FeatureCollection",
  "features": [
    {
      "type": "Feature",
      "properties": {
        "norad_id": 34613,
        "name": "COSMOS 2251 DEB",
        "group": "cosmos-2251-debris",
        "lat": 73.90159045832469,
        "lon": 30.43393372812386,
        "alt_km": 734.5094404541078,
        "timestamp": "2025-12-03T06:58:43.636789+00:00",
        "meta_object_name": "COSMOS 2251 DEB",
        "meta_object_id": "1993-036WJ",
        "meta_epoch": "2025-12-02T14:16:40.154016",
        "meta_mean_motion": 14.26335648,
        "meta_eccentricity": 0.01101588,
        "meta_inclination": 73.9632,
        "meta_ra_of_asc_node": 296.9732,
        "meta_arg_of_pericenter": 131.4585,
        "meta_mean_anomaly": 348.8647,
        "meta_ephemeris_type": 0,
        "meta_classification_type": "U",
        "meta_norad_cat_id": 34613,
        "meta_element_set_no": 999,
        "meta_rev_at_epoch": 86318,
        "meta_bstar": 0.0014991683,
        "meta_mean_motion_dot": 3.815e-05,
        "meta_mean_motion_ddot": 0,
        "tle_line1": "1 34613U 93036WJ  25336.59490919  .00003815  00000+0  14992-2 0  9996",
        "tle_line2": "2 34613  73.9632 296.9732 0110158 131.4585 348.8647 14.26335648863188"
      },
      "geometry": {
        "type": "Point",
        "coordinates": [
          30.43393372812386,
          73.90159045832469
        ]
      }
    },
    {
      "type": "Feature",
      "properties": {
        "norad_id": 34614,
        "name": "COSMOS 2251 DEB",
        "group": "cosmos-2251-debris",
        "lat": -43.95904853548338,
        "lon": -15.30637685345582,
        "alt_km": 736.4639750771266,
        "timestamp": "2025-12-03T06:58:43.636799+00:00",
        "meta_object_name": "COSMOS 2251 DEB",
        "meta_object_id": "1993-036WK",
        "meta_epoch": "2025-12-01T02:57:24.830784",
        "meta_mean_motion": 14.17031843,
        "meta_eccentricity": 0.01960492,
        "meta_inclination": 73.8807,
        "meta_ra_of_asc_node": 4.7818,
        "meta_arg_of_pericenter": 0.8812,
        "meta_mean_anomaly": 61.0793,
        "meta_ephemeris_type": 0,
        "meta_classification_type": "U",
        "meta_norad_cat_id": 34614,
        "meta_element_set_no": 999,
        "meta_rev_at_epoch": 84602,
        "meta_bstar": 0.0044777238,
        "meta_mean_motion_dot": 0.00010861,
        "meta_mean_motion_ddot": 0,
        "tle_line1": "1 34614U 93036WK  25335.12320406  .00010861  00000+0  44777-2 0  9991",
        "tle_line2": "2 34614  73.8807   4.7818 0196049   0.8812  61.0793 14.17031843846027"
      },
      "geometry": {
        "type": "Point",
        "coordinates": [
          -15.30637685345582,
          -43.95904853548338
        ]
      }
    },
    {
      "type": "Feature",
      "properties": {
        "norad_id": 34615,
        "name": "COSMOS 2251 DEB",
        "group": "cosmos-2251-debris",
        "lat": -73.10551809246923,
        "lon": -159.9082761471348,
        "alt_km": 857.0889931053662,
        "timestamp": "2025-12-03T06:58:43.636810+00:00",
        "meta_object_name": "COSMOS 2251 DEB",
        "meta_object_id": "1993-036WL",
        "meta_epoch": "2025-12-01T17:17:48.208704",
        "meta_mean_motion": 13.52196517,
        "meta_eccentricity": 0.04023715,
        "meta_inclination": 74.0055,
        "meta_ra_of_asc_node": 311.8151,
        "meta_arg_of_pericenter": 221.3257,
        "meta_mean_anomaly": 319.7339,
        "meta_ephemeris_type": 0,
        "meta_classification_type": "U",
        "meta_norad_cat_id": 34615,
        "meta_element_set_no": 999,
        "meta_rev_at_epoch": 82666,
        "meta_bstar": 4.7217708e-05,
        "meta_mean_motion_dot": 2.9e-07,
        "meta_mean_motion_ddot": 0,
        "tle_line1": "1 34615U 93036WL  25335.72069686  .00000029  00000+0  47218-4 0  9998",
        "tle_line2": "2 34615  74.0055 311.8151 0402371 221.3257 319.7339 13.52196517826664"
      },
      "geometry": {
        "type": "Point",
        "coordinates": [
          -159.9082761471348,
          -73.10551809246923
        ]
      }
    },
    {
      "type": "Feature",
      "properties": {
        "norad_id": 34619,
        "name": "COSMOS 2251 DEB",
        "group": "cosmos-2251-debris",
        "lat": -48.898996505689034,
        "lon": -161.04807977083695,
        "alt_km": 618.5717450032134,
        "timestamp": "2025-12-03T06:58:43.636820+00:00",
        "meta_object_name": "COSMOS 2251 DEB",
        "meta_object_id": "1993-036WQ",
        "meta_epoch": "2025-12-02T18:05:42.842112",
        "meta_mean_motion": 14.64601992,
        "meta_eccentricity": 0.0094555,
        "meta_inclination": 74.0445,
        "meta_ra_of_asc_node": 219.1271,
        "meta_arg_of_pericenter": 316.2875,
        "meta_mean_anomaly": 43.0831,
        "meta_ephemeris_type": 0,
        "meta_classification_type": "U",
        "meta_norad_cat_id": 34619,
        "meta_element_set_no": 999,
        "meta_rev_at_epoch": 89152,
        "meta_bstar": 0.00031021,
        "meta_mean_motion_dot": 1.725e-05,
        "meta_mean_motion_ddot": 0,
        "tle_line1": "1 34619U 93036WQ  25336.75396808  .00001725  00000+0  31021-3 0  9993",
        "tle_line2": "2 34619  74.0445 219.1271 0094555 316.2875  43.0831 14.64601992891528"
      },
      "geometry": {
        "type": "Point",
        "coordinates": [
          -161.04807977083695,
          -48.898996505689034
        ]
      }
    },
    {
      "type": "Feature",
      "properties": {
        "norad_id": 34620,
        "name": "COSMOS 2251 DEB",
        "group": "cosmos-2251-debris",
        "lat": -0.7959557283429078,
        "lon": -122.99679200953672,
        "alt_km": 725.1553938235193,
        "timestamp": "2025-12-03T06:58:43.636830+00:00",
        "meta_object_name": "COSMOS 2251 DEB",
        "meta_object_id": "1993-036WR",
        "meta_epoch": "2025-12-02T19:22:55.905600",
        "meta_mean_motion": 14.48809864,
        "meta_eccentricity": 0.0081949,
        "meta_inclination": 74.052,
        "meta_ra_of_asc_node": 238.1353,
        "meta_arg_of_pericenter": 276.8248,
        "meta_mean_anomaly": 82.3593,
        "meta_ephemeris_type": 0,
        "meta_classification_type": "U",
        "meta_norad_cat_id": 34620,
        "meta_element_set_no": 999,
        "meta_rev_at_epoch": 86683,
        "meta_bstar": 0.00313,
        "meta_mean_motion_dot": 0.0001233,
        "meta_mean_motion_ddot": 0,
        "tle_line1": "1 34620U 93036WR  25336.80759150  .00012330  00000+0  31300-2 0  9997",
        "tle_line2": "2 34620  74.0520 238.1353 0081949 276.8248  82.3593 14.48809864866831"
      },
      "geometry": {
        "type": "Point",
        "coordinates": [
          -122.99679200953672,
          -0.7959557283429078
        ]
      }
    },
    {
      "type": "Feature",
      "properties": {
        "norad_id": 34622,
        "name": "COSMOS 2251 DEB",
        "group": "cosmos-2251-debris",
        "lat": -12.351719436472045,
        "lon": 147.5584203729071,
        "alt_km": 882.8700464193062,
        "timestamp": "2025-12-03T06:58:43.636841+00:00",
        "meta_object_name": "COSMOS 2251 DEB",
        "meta_object_id": "1993-036WT",
        "meta_epoch": "2025-12-01T23:50:38.063904",
        "meta_mean_motion": 14.21969293,
        "meta_eccentricity": 0.01038806,
        "meta_inclination": 74.0412,
        "meta_ra_of_asc_node": 326.2923,
        "meta_arg_of_pericenter": 51.4861,
        "meta_mean_anomaly": 342.2462,
        "meta_ephemeris_type": 0,
        "meta_classification_type": "U",
        "meta_norad_cat_id": 34622,
        "meta_element_set_no": 999,
        "meta_rev_at_epoch": 86307,
        "meta_bstar": 0.0010275914,
        "meta_mean_motion_dot": 2.373e-05,
        "meta_mean_motion_ddot": 0,
        "tle_line1": "1 34622U 93036WT  25335.99349611  .00002373  00000+0  10276-2 0  9990",
        "tle_line2": "2 34622  74.0412 326.2923 0103880  51.4861 342.2462 14.21969293863072"
      },
      "geometry": {
        "type": "Point",
        "coordinates": [
          147.5584203729071,
          -12.351719436472045
        ]
      }
    },
    {
      "type": "Feature",
      "properties": {
        "norad_id": 34626,
        "name": "COSMOS 2251 DEB",
        "group": "cosmos-2251-debris",
        "lat": 60.97344074115365,
        "lon": 131.2374517159686,
        "alt_km": 634.4319620213037,
        "timestamp": "2025-12-03T06:58:43.636851+00:00",
        "meta_object_name": "COSMOS 2251 DEB",
        "meta_object_id": "1993-036WX",
        "meta_epoch": "2025-12-02T11:35:39.371712",
        "meta_mean_motion": 14.72000157,
        "meta_eccentricity": 0.00261475,
        "meta_inclination": 74.0482,
        "meta_ra_of_asc_node": 343.8335,
        "meta_arg_of_pericenter": 75.5281,
        "meta_mean_anomaly": 80.4642,
        "meta_ephemeris_type": 0,
        "meta_classification_type": "U",
        "meta_norad_cat_id": 34626,
        "meta_element_set_no": 999,
        "meta_rev_at_epoch": 88993,
        "meta_bstar": 0.001074246,
        "meta_mean_motion_dot": 6.754e-05,
        "meta_mean_motion_ddot": 0,
        "tle_line1": "1 34626U 93036WX  25336.48309458  .00006754  00000+0  10742-2 0  9999",
        "tle_line2": "2 34626  74.0482 343.8335 0026147  75.5281  80.4642 14.72000157889933"
      },
      "geometry": {
        "type": "Point",
        "coordinates": [
          131.2374517159686,
          60.97344074115365
        ]
      }
    }
  ]
}